#dP2020  7 31  0  0  0.00000000      96 __u+U ITR00 FIT  IAC
## 2116 432000.00000000   900.00000000 59061 0.0000000000000
+  114   C01C02C03C04C05C06C07C08C09C10C11C12C13C14C16C19C20
+        C21C22C23C24C25C26C27C28C29C30C32C33C34C35C36C37C44
+        E01E02E03E04E05E07E08E09E11E12E13E14E15E18E19E21E24
+        E25E26E27E30E31E33E36G01G02G03G04G05G06G07G08G09G10
+        G11G12G13G15G16G17G18G19G20G21G22G23G24G25G26G27G28
+        G29G30G31G32J01J02J03R01R02R03R04R05R07R08R09R11R12
+        R13R14R15R16R17R18R19R20R21R23R24R26  0  0  0  0  0
++        13 13 13 13 13  0  8  8  8  8  8  8  8  8  8  7  7
++         8  7  8  8  8  8  8  8  7  8  8  8  8  8  8  8  9
++         4  5  5  4  4  4  5  4  5  5  5  5  5  4  4  4  5
++         4  4  4  5  4  4  5  3  4  3  3  3  3  3  3  3  3
++         3  3  3  3  4  4  3  4  3  3  3  4  3  3  3  3  3
++         3  3  3  3  8  8  8  6  5  6  5  5  5  6  6  5  6
++         6  5  5  6  5  5  6  6  6  5  6  8  0  0  0  0  0
%c M  cc GPS ccc cccc cccc cccc cccc ccccc ccccc ccccc ccccc
%c cc cc ccc ccc cccc cccc cccc cccc ccccc ccccc ccccc ccccc
%f  0.0000000  0.000000000  0.00000000000  0.000000000000000
%f  0.0000000  0.000000000  0.00000000000  0.000000000000000
%i    0    0    0    0      0      0      0      0         0
%i    0    0    0    0      0      0      0      0         0
/* INFORMATION & ANALYSIS CENTER (IAC)            RAPID DATA
/* S/V CLOCKS ARE ALIGNED TO GNSS TIME                      
/* G:C1WC2W R:C1PC2P E:C1XC5X C:C2IC6I J:C1CC2S             
/* PCV:IGS14_2113 OL/AL:FES2004  NONE     YN ORB:CoN CLK:CoN
*  2020 07 31 21 15  0.00000000
PC01 -34344.623305  24499.204444    590.119146   -274.483660
PC02   4448.058420  41891.417023   -905.686611    177.914391
PC03 -14732.898776  39479.392227   -857.043798    814.061291
PC04 -39613.307246  14445.334477    188.115089    -66.595718
PC05  21855.015574  36028.804280  -1151.460373     25.140071
PC06      0.000000      0.000000      0.000000 999999.999999
PC07 -10521.598617  24302.518787  33054.058194    114.527568
PC08 -24871.716947  26971.397178 -21011.498747   -413.893509
PC09  -3837.842299  41758.076683   1105.406456    713.585733
PC10   3530.561219  29431.878877  30328.461762   -222.585908
PC11  11416.122299  12315.984663 -22246.318249   -526.481940
PC12   -463.475991  25763.918164 -10728.086806    451.595948
PC13 -10651.689961  27818.835949 -29879.828011    572.214038
PC14  21215.358461  17636.815203   4432.837629    751.279505
PC16  -9605.260311  39559.977099 -10544.350058   -593.772972
PC19 -22431.120138 -10400.803120 -12894.206770    493.635936
PC20 -17144.877290 -21661.681586   3832.610804   -836.534051
PC21   1421.589608  20469.141027 -18908.364084   -662.460622
PC22 -14788.177032   7195.460321 -22537.156018   -767.643826
PC23  24482.736661 -11113.820032  -7472.314781   -844.574920
PC24  11975.454114  13015.316806  21585.637443   -752.526114
PC25  26166.205983    340.840491   9673.322662   -705.509321
PC26  -7622.735169  17134.167275  20674.534227    775.452095
PC27   7145.771938 -26921.837317   1810.152460    373.878329
PC28  16194.220190 -17130.283851 -14927.792595   -188.355384
PC29 -15859.108134  -2017.903336  22862.259083    263.633912
PC30  -6641.766062 -20936.452403  17216.611399    354.557020
PC32  -1516.820401 -20451.141865  18934.184007   -879.337740
PC33  22526.702664  10339.018851  12849.680664   -795.146280
PC34   6974.390636  20546.355624 -17548.299085   -888.553955
PC35 -15688.716207  17474.483873  15047.015517   -723.771474
PC36 -26072.801339  -1083.296033  -9843.758253   -885.288324
PC37   8742.353093 -16908.911300 -20376.318467   -884.660572
PC44  -6346.715530  27108.731579  -1661.377909   -296.264040
PE01   8589.295622  17213.378758  22504.530153   -909.988421
PE02  -8706.713221 -17204.302789 -22455.272453    151.210337
PE03  -7465.194981 -28529.874075   2441.020922   -326.695803
PE04  17336.651667  18638.534851  15119.065356   -577.159942
PE05   6907.288208 -21810.322727  18784.350885   -358.527765
PE07 -17116.481408   2426.528708 -24017.020614   -416.471356
PE08 -17419.032713 -18345.545153 -15350.273905   6141.644729
PE09  16948.370890  -2581.217011  24138.743106   5978.588384
PE11  23018.193660 -11459.009307 -14686.488770   4479.310455
PE12  14663.590838   7780.148689 -24513.586313   5678.659403
PE13 -22908.950786  11372.001448  14898.576640    402.703406
PE14  -4487.603992  25983.456830   5465.392400  -1103.957454
PE15 -14771.574026  -7486.119676  24533.877155    857.966654
PE18  14298.255659 -20406.288746 -16965.501140  -1208.038800
PE19   6041.308320  28627.989462  -4482.388260     41.695541
PE21 -13207.150288  12978.114445  23096.224301   -613.228015
PE24  27883.221360   -733.222158  -9893.505410   5321.530978
PE25  13369.059466 -12901.195528 -23034.073874   -514.446833
PE26 -17428.113166  23603.461474  -3951.518834   2895.715417
PE27 -27763.831156   1091.971797  10212.746848    165.549184
PE30 -25623.904980 -11765.363142  -9019.609497   3702.590210
PE31  25932.289681  11389.319338   8627.381261   -473.445204
PE33  -2046.355810  21947.573702 -19756.042145   -464.268988
PE36  17595.803382 -23546.782672   3479.345311    526.795475
PG01  -9241.224636  18950.785822 -16178.506589     30.523368
PG02  21947.448758 -14557.183773  -2610.133177   -495.542379
PG03   1238.295810  16632.298180 -20768.020079   -256.566525
PG04   -587.633808  26462.299593  -1949.343514   -119.169794
PG05  18694.504784  -5478.983385  17995.726972    -17.836964
PG06  22125.236913  -3149.682959 -14332.388797   -310.196540
PG07   8914.726836  12747.360838  21852.691459   -339.957527
PG08  -7073.832494  22053.716826  12774.741396    -42.913033
PG09   8307.082095  23509.667542   9077.367638   -262.959273
PG10 -24034.426147 -11608.601462   -370.393352   -415.179624
PG11 -11008.282464  24239.380099  -3027.006669   -205.486653
PG12    420.648065 -16336.517204 -21202.981037     86.510197
PG13  12983.377922 -15152.397778  17357.293927     31.691266
PG15   4849.834733 -23051.466565  11570.731794   -213.728497
PG16 -16785.268121   5338.497758  19802.100008   -189.823688
PG17  13455.643663  10064.280492 -20159.986086    304.309259
PG18  -8583.919069 -12471.343046  21810.152665    259.608622
PG19  14826.814226   1606.962999 -22278.824770   -124.557412
PG20 -18920.667582 -15083.976507  11136.098360    527.165415
PG21 -22270.264617   4195.902513  14380.520078     30.335740
PG22  -6929.399259  14170.013856 -21161.392735   -767.891460
PG23 -19499.785044 -15801.166945   8666.877554     24.367520
PG24  10266.018433 -20313.475670 -13577.446658    -16.480635
PG25 -11244.827974 -18147.988089 -16202.025452     29.800355
PG26 -24468.220929  -3098.455607  10117.413492    253.302159
PG27 -12478.408784  12407.592532  19639.276039   -359.862981
PG28  22959.527599  13014.636779  -1533.656626    694.132605
PG29  -3606.785057 -25649.553399   5738.650209   -162.677155
PG30  18127.008663   5082.173173  18866.169100   -273.239260
PG31 -23276.501709   4063.717573 -12616.269961    -59.230492
PG32 -14888.528226  -8500.545098 -20238.706855    325.817553
PJ01 -20886.039976  20500.396604 -25766.641596   -194.162533
PJ02 -30811.691346  22173.102301  23145.779708     -1.846625
PJ03 -28629.669473  27691.131154  19026.080928     -0.259999
PR01 -16764.127859 -16849.787360  -9234.592947     65.356252
PR02 -11784.073569   1357.492272 -22548.065750    438.883545
PR03   -182.869598  16602.310852 -19304.140547     19.555744
PR04  11493.824273  22172.195381  -5159.329472     58.257523
PR05  16539.141135  15321.343473  11924.191716     55.044075
PR07   -242.227363 -17040.782956  19032.802620    -38.914383
PR08 -11397.497752 -22225.433753   5269.407004    -53.795130
PR09  22178.258974  -6609.492474 -10793.613208    146.449398
PR11  -9078.240676  -9990.527631 -21611.499027    -32.482581
PR12 -22854.735196  -3807.900877 -10653.867822    151.715951
PR13 -24094.618109   4818.450741   6823.116431    -41.890436
PR14 -11011.916295  10463.616074  20503.108327     53.954572
PR15   8141.464060  10066.927103  22004.878934    106.955130
PR16  23157.070120   3147.374190  10065.402273     -4.919138
PR17 -11631.213946  22728.023040   -149.521627    345.868191
PR18  -2164.753449  19747.500790 -15963.784709     44.231096
PR19   7968.251607   6982.714854 -23210.461617   -104.819095
PR20  15145.855573 -12201.515115 -16525.340767   -418.155663
PR21  11248.167145 -22845.898215   1160.633569   -141.938679
PR23 -11620.150835    252.276511  22692.185028    322.295840
PR24 -15389.941734  12762.734219  15861.738074      8.186033
PR26  14092.270024  -7821.101329 -19752.879648   -363.697029
EOF
